GLOBALSTAR M001         
1 25162U 98008A   25221.33393429 -.00000107  00000+0 -81748-4 0  9990
2 25162  52.0014 178.5349 0001754   8.5987 157.1874 12.38215286250290
GLOBALSTAR M004         
1 25163U 98008B   25221.57114875 -.00000050  00000+0  29970-3 0  9997
2 25163  51.9985 251.2923 0003144  53.4582  82.8493 12.63400009268431
GLOBALSTAR M002         
1 25164U 98008C   25221.34871678 -.00000067  00000+0  18463-3 0  9997
2 25164  52.0010 106.9111 0000730 262.4783  97.5954 11.61511305190248
GLOBALSTAR M003         
1 25165U 98008D   25221.38088604 -.00000189  00000+0 -10629-2 0  9992
2 25165  51.9996  21.1994 0008654  43.4149 328.4520 12.12067350239672
GLOBALSTAR M014         
1 25306U 98023A   25221.46310593 -.00000068  00000+0  17381-3 0  9998
2 25306  51.9858  28.7268 0001813  91.0416 306.1356 11.65481653197383
GLOBALSTAR M006         
1 25307U 98023B   25221.88573775 -.00000109  00000+0 -67586-3 0  9997
2 25307  51.9941  82.1385 0002537 191.6538 181.8288 11.58175318223165
GLOBALSTAR M015         
1 25308U 98023C   25221.40496137 -.00000090  00000+0 -37670-3 0  9992
2 25308  51.9797 184.2456 0012230 170.3749 337.5454 11.48860596200198
GLOBALSTAR M008         
1 25309U 98023D   25221.22404029 -.00000093  00000+0  22880-4 0  9992
2 25309  51.9979  44.2861 0001881 299.1213 232.0158 12.36071312244716
